[
      {
      "OBJECT_NAME": "PROGRESS-MS 28",
      "OBJECT_ID": "2024-145A",
      "EPOCH": "2024-09-29T20:38:06.238752",
      "MEAN_MOTION": 15.49913497,
      "ECCENTRICITY": 0.0007109,
      "INCLINATION": 51.6373,
      "RA_OF_ASC_NODE": 156.93,
      "ARG_OF_PERICENTER": 44.4443,
      "MEAN_ANOMALY": 315.7115,
      "EPHEMERIS_TYPE": 0,
      "CLASSIFICATION_TYPE": "U",
      "NORAD_CAT_ID": 60450,
      "ELEMENT_SET_NO": 999,
      "REV_AT_EPOCH": 689,
      "BSTAR": 0.00049605,
      "MEAN_MOTION_DOT": 0.00027889,
      "MEAN_MOTION_DDOT": 0
      },
      {
      "OBJECT_NAME": "BINAR-4",
      "OBJECT_ID": "1998-067WS",
      "EPOCH": "2024-09-29T16:23:37.095072",
      "MEAN_MOTION": 15.60969428,
      "ECCENTRICITY": 0.0004302,
      "INCLINATION": 51.6337,
      "RA_OF_ASC_NODE": 156.5017,
      "ARG_OF_PERICENTER": 76.5643,
      "MEAN_ANOMALY": 283.5829,
      "EPHEMERIS_TYPE": 0,
      "CLASSIFICATION_TYPE": "U",
      "NORAD_CAT_ID": 60952,
      "ELEMENT_SET_NO": 999,
      "REV_AT_EPOCH": 487,
      "BSTAR": 0.0031735,
      "MEAN_MOTION_DOT": 0.00280673,
      "MEAN_MOTION_DDOT": 0
      },
      {
      "OBJECT_NAME": "COSMOGIRLSAT",
      "OBJECT_ID": "1998-067WT",
      "EPOCH": "2024-09-29T20:08:01.776480",
      "MEAN_MOTION": 15.57404193,
      "ECCENTRICITY": 0.0008193,
      "INCLINATION": 51.6353,
      "RA_OF_ASC_NODE": 156.044,
      "ARG_OF_PERICENTER": 60.2316,
      "MEAN_ANOMALY": 299.949,
      "EPHEMERIS_TYPE": 0,
      "CLASSIFICATION_TYPE": "U",
      "NORAD_CAT_ID": 60953,
      "ELEMENT_SET_NO": 999,
      "REV_AT_EPOCH": 489,
      "BSTAR": 0.0020829,
      "MEAN_MOTION_DOT": 0.00158435,
      "MEAN_MOTION_DDOT": 0
      },
      {
      "OBJECT_NAME": "SAKURA",
      "OBJECT_ID": "1998-067WU",
      "EPOCH": "2024-09-29T23:00:02.941632",
      "MEAN_MOTION": 15.58375719,
      "ECCENTRICITY": 0.0007426,
      "INCLINATION": 51.6357,
      "RA_OF_ASC_NODE": 155.3434,
      "ARG_OF_PERICENTER": 63.7345,
      "MEAN_ANOMALY": 296.4409,
      "EPHEMERIS_TYPE": 0,
      "CLASSIFICATION_TYPE": "U",
      "NORAD_CAT_ID": 60954,
      "ELEMENT_SET_NO": 999,
      "REV_AT_EPOCH": 491,
      "BSTAR": 0.0023178,
      "MEAN_MOTION_DOT": 0.00183451,
      "MEAN_MOTION_DDOT": 0
      },
      {
      "OBJECT_NAME": "1998-067WV",
      "OBJECT_ID": "1998-067WV",
      "EPOCH": "2024-09-29T22:47:51.123264",
      "MEAN_MOTION": 15.67041677,
      "ECCENTRICITY": 0.0001827,
      "INCLINATION": 51.6332,
      "RA_OF_ASC_NODE": 154.5344,
      "ARG_OF_PERICENTER": 139.1909,
      "MEAN_ANOMALY": 220.9224,
      "EPHEMERIS_TYPE": 0,
      "CLASSIFICATION_TYPE": "U",
      "NORAD_CAT_ID": 60955,
      "ELEMENT_SET_NO": 999,
      "REV_AT_EPOCH": 492,
      "BSTAR": 0.0040899,
      "MEAN_MOTION_DOT": 0.00470664,
      "MEAN_MOTION_DDOT": 0
      },
      {
      "OBJECT_NAME": "BINAR-2",
      "OBJECT_ID": "1998-067WW",
      "EPOCH": "2024-09-29T22:40:08.755392",
      "MEAN_MOTION": 15.59889897,
      "ECCENTRICITY": 0.0005418,
      "INCLINATION": 51.6305,
      "RA_OF_ASC_NODE": 155.2413,
      "ARG_OF_PERICENTER": 74.4637,
      "MEAN_ANOMALY": 285.6954,
      "EPHEMERIS_TYPE": 0,
      "CLASSIFICATION_TYPE": "U",
      "NORAD_CAT_ID": 60956,
      "ELEMENT_SET_NO": 999,
      "REV_AT_EPOCH": 490,
      "BSTAR": 0.0025781,
      "MEAN_MOTION_DOT": 0.00216986,
      "MEAN_MOTION_DDOT": 0
      },
      {
      "OBJECT_NAME": "BINAR-3",
      "OBJECT_ID": "1998-067WX",
      "EPOCH": "2024-09-29T22:18:47.451168",
      "MEAN_MOTION": 15.61958405,
      "ECCENTRICITY": 0.000389,
      "INCLINATION": 51.6323,
      "RA_OF_ASC_NODE": 155.1482,
      "ARG_OF_PERICENTER": 79.315,
      "MEAN_ANOMALY": 280.8282,
      "EPHEMERIS_TYPE": 0,
      "CLASSIFICATION_TYPE": "U",
      "NORAD_CAT_ID": 60957,
      "ELEMENT_SET_NO": 999,
      "REV_AT_EPOCH": 689,
      "BSTAR": 0.0032227,
      "MEAN_MOTION_DOT": 0.00296712,
      "MEAN_MOTION_DDOT": 0
      },
      {
      "OBJECT_NAME": "1998-067WY",
      "OBJECT_ID": "1998-067WY",
      "EPOCH": "2024-09-29T17:09:17.147520",
      "MEAN_MOTION": 15.56887671,
      "ECCENTRICITY": 0.0008616,
      "INCLINATION": 51.6364,
      "RA_OF_ASC_NODE": 156.7174,
      "ARG_OF_PERICENTER": 58.5181,
      "MEAN_ANOMALY": 301.6652,
      "EPHEMERIS_TYPE": 0,
      "CLASSIFICATION_TYPE": "U",
      "NORAD_CAT_ID": 60958,
      "ELEMENT_SET_NO": 999,
      "REV_AT_EPOCH": 486,
      "BSTAR": 0.001905,
      "MEAN_MOTION_DOT": 0.00141814,
      "MEAN_MOTION_DDOT": 0
      },
      {
      "OBJECT_NAME": "SOYUZ-MS 26",
      "OBJECT_ID": "2024-162A",
      "EPOCH": "2024-09-29T20:38:06.238752",
      "MEAN_MOTION": 15.49913497,
      "ECCENTRICITY": 0.0007109,
      "INCLINATION": 51.6373,
      "RA_OF_ASC_NODE": 156.93,
      "ARG_OF_PERICENTER": 44.4443,
      "MEAN_ANOMALY": 315.7115,
      "EPHEMERIS_TYPE": 0,
      "CLASSIFICATION_TYPE": "U",
      "NORAD_CAT_ID": 61043,
      "ELEMENT_SET_NO": 999,
      "REV_AT_EPOCH": 47269,
      "BSTAR": 0.00049605,
      "MEAN_MOTION_DOT": 0.00027889,
      "MEAN_MOTION_DDOT": 0
      },
      {
      "OBJECT_NAME": "CREW DRAGON 9",
      "OBJECT_ID": "2024-178A",
      "EPOCH": "2024-09-29T20:38:06.243072",
      "MEAN_MOTION": 15.49913214,
      "ECCENTRICITY": 0.0007109,
      "INCLINATION": 51.6372,
      "RA_OF_ASC_NODE": 156.9301,
      "ARG_OF_PERICENTER": 44.5341,
      "MEAN_ANOMALY": 315.6218,
      "EPHEMERIS_TYPE": 0,
      "CLASSIFICATION_TYPE": "U",
      "NORAD_CAT_ID": 61447,
      "ELEMENT_SET_NO": 999,
      "REV_AT_EPOCH": 47478,
      "BSTAR": 0.00049258,
      "MEAN_MOTION_DOT": 0.00027689,
      "MEAN_MOTION_DDOT": 0
      }
      ]
