PROGRESS-MS 28          
1 60450U 24145A   24273.85979443  .00027889  00000+0  49605-3 0  9998
2 60450  51.6373 156.9300 0007109  44.4443 315.7115 15.49913497  6894
BINAR-4                 
1 60952U 98067WS  24273.68306823  .00280673  00000+0  31735-2 0  9992
2 60952  51.6337 156.5017 0004302  76.5643 283.5829 15.60969428  4870
COSMOGIRLSAT            
1 60953U 98067WT  24273.83890945  .00158435  00000+0  20829-2 0  9995
2 60953  51.6353 156.0440 0008193  60.2316 299.9490 15.57404193  4899
SAKURA                  
1 60954U 98067WU  24273.95836738  .00183451  00000+0  23178-2 0  9995
2 60954  51.6357 155.3434 0007426  63.7345 296.4409 15.58375719  4914
1998-067WV              
1 60955U 98067WV  24273.94989726  .00470664  00000+0  40899-2 0  9995
2 60955  51.6332 154.5344 0001827 139.1909 220.9224 15.67041677  4923
BINAR-2                 
1 60956U 98067WW  24273.94454578  .00216986  00000+0  25781-2 0  9996
2 60956  51.6305 155.2413 0005418  74.4637 285.6954 15.59889897  4909
BINAR-3                 
1 60957U 98067WX  24273.92971587  .00296712  00000+0  32227-2 0  9997
2 60957  51.6323 155.1482 0003890  79.3150 280.8282 15.61958405  6897
1998-067WY              
1 60958U 98067WY  24273.71478180  .00141814  00000+0  19050-2 0  9997
2 60958  51.6364 156.7174 0008616  58.5181 301.6652 15.56887671  4860
SOYUZ-MS 26             
1 61043U 24162A   24273.85979443  .00027889  00000+0  49605-3 0  9996
2 61043  51.6373 156.9300 0007109  44.4443 315.7115 15.49913497472698
CREW DRAGON 9           
1 61447U 24178A   24273.85979448  .00027689  00000+0  49258-3 0  9998
2 61447  51.6372 156.9301 0007109  44.5341 315.6218 15.49913214474786
